IRIDIUM 57              
1 25273U 98019B   24124.59531724  .00000461  00000+0  15438-3 0  9999
2 25273  86.3928 316.8136 0002173  88.6919 271.4526 14.35179241366020
IRIDIUM 63              
1 25286U 98021B   24124.63606142  .00000599  00000+0  20054-3 0  9990
2 25286  86.3977 253.6672 0002210  98.8114 261.3333 14.35723248365332
IRIDIUM 69              
1 25319U 98026A   24124.48784654  .00000832  00000+0  25841-3 0  9999
2 25319  86.3950 268.2594 0000815   0.3257 359.7943 14.39939230364084
IRIDIUM 71              
1 25320U 98026B   24124.63660425  .00000707  00000+0  21715-3 0  9994
2 25320  86.3954 262.9634 0002865  45.7676 314.3758 14.40258777364871
IRIDIUM 73              
1 25344U 98032C   24124.53043663  .00000779  00000+0  19419-3 0  9992
2 25344  86.4469 220.5074 0001698  87.8686 272.2713 14.50477549371151
IRIDIUM 82              
1 25467U 98051A   24124.53075625  .00010306  00000+0  53210-3 0  9996
2 25467  86.3703 306.9505 0130823  25.7460 335.0210 15.08916789361752
IRIDIUM 2               
1 25527U 98066A   24124.54561080  .00103183  00000+0  78777-3 0  9996
2 25527  85.5058 332.2761 0004074 126.2301 233.9346 15.71866112400875
