<?xml version="1.0" encoding="UTF-8"?>
<ndm xmlns:xsi="http://www.w3.org/2001/XMLSchema-instance" xsi:noNamespaceSchemaLocation="https://sanaregistry.org/r/ndmxml_unqualified/ndmxml-2.0.0-master-2.0.xsd">
<omm id="CCSDS_OMM_VERS" version="2.0">
<header><CREATION_DATE/><ORIGINATOR/></header><body><segment><metadata><OBJECT_NAME>IRIDIUM 57</OBJECT_NAME><OBJECT_ID>1998-019B</OBJECT_ID><CENTER_NAME>EARTH</CENTER_NAME><REF_FRAME>TEME</REF_FRAME><TIME_SYSTEM>UTC</TIME_SYSTEM><MEAN_ELEMENT_THEORY>SGP4</MEAN_ELEMENT_THEORY></metadata><data><meanElements><EPOCH>2024-05-03T14:17:15.409536</EPOCH><MEAN_MOTION>14.35179241</MEAN_MOTION><ECCENTRICITY>.0002173</ECCENTRICITY><INCLINATION>86.3928</INCLINATION><RA_OF_ASC_NODE>316.8136</RA_OF_ASC_NODE><ARG_OF_PERICENTER>88.6919</ARG_OF_PERICENTER><MEAN_ANOMALY>271.4526</MEAN_ANOMALY></meanElements><tleParameters><EPHEMERIS_TYPE>0</EPHEMERIS_TYPE><CLASSIFICATION_TYPE>U</CLASSIFICATION_TYPE><NORAD_CAT_ID>25273</NORAD_CAT_ID><ELEMENT_SET_NO>999</ELEMENT_SET_NO><REV_AT_EPOCH>36602</REV_AT_EPOCH><BSTAR>.15438E-3</BSTAR><MEAN_MOTION_DOT>.461E-5</MEAN_MOTION_DOT><MEAN_MOTION_DDOT>0</MEAN_MOTION_DDOT></tleParameters></data></segment></body></omm>
<omm id="CCSDS_OMM_VERS" version="2.0">
<header><CREATION_DATE/><ORIGINATOR/></header><body><segment><metadata><OBJECT_NAME>IRIDIUM 63</OBJECT_NAME><OBJECT_ID>1998-021B</OBJECT_ID><CENTER_NAME>EARTH</CENTER_NAME><REF_FRAME>TEME</REF_FRAME><TIME_SYSTEM>UTC</TIME_SYSTEM><MEAN_ELEMENT_THEORY>SGP4</MEAN_ELEMENT_THEORY></metadata><data><meanElements><EPOCH>2024-05-03T15:15:55.706688</EPOCH><MEAN_MOTION>14.35723248</MEAN_MOTION><ECCENTRICITY>.000221</ECCENTRICITY><INCLINATION>86.3977</INCLINATION><RA_OF_ASC_NODE>253.6672</RA_OF_ASC_NODE><ARG_OF_PERICENTER>98.8114</ARG_OF_PERICENTER><MEAN_ANOMALY>261.3333</MEAN_ANOMALY></meanElements><tleParameters><EPHEMERIS_TYPE>0</EPHEMERIS_TYPE><CLASSIFICATION_TYPE>U</CLASSIFICATION_TYPE><NORAD_CAT_ID>25286</NORAD_CAT_ID><ELEMENT_SET_NO>999</ELEMENT_SET_NO><REV_AT_EPOCH>36533</REV_AT_EPOCH><BSTAR>.20054E-3</BSTAR><MEAN_MOTION_DOT>.599E-5</MEAN_MOTION_DOT><MEAN_MOTION_DDOT>0</MEAN_MOTION_DDOT></tleParameters></data></segment></body></omm>
<omm id="CCSDS_OMM_VERS" version="2.0">
<header><CREATION_DATE/><ORIGINATOR/></header><body><segment><metadata><OBJECT_NAME>IRIDIUM 69</OBJECT_NAME><OBJECT_ID>1998-026A</OBJECT_ID><CENTER_NAME>EARTH</CENTER_NAME><REF_FRAME>TEME</REF_FRAME><TIME_SYSTEM>UTC</TIME_SYSTEM><MEAN_ELEMENT_THEORY>SGP4</MEAN_ELEMENT_THEORY></metadata><data><meanElements><EPOCH>2024-05-03T11:42:29.941056</EPOCH><MEAN_MOTION>14.39939230</MEAN_MOTION><ECCENTRICITY>.0000815</ECCENTRICITY><INCLINATION>86.3950</INCLINATION><RA_OF_ASC_NODE>268.2594</RA_OF_ASC_NODE><ARG_OF_PERICENTER>0.3257</ARG_OF_PERICENTER><MEAN_ANOMALY>359.7943</MEAN_ANOMALY></meanElements><tleParameters><EPHEMERIS_TYPE>0</EPHEMERIS_TYPE><CLASSIFICATION_TYPE>U</CLASSIFICATION_TYPE><NORAD_CAT_ID>25319</NORAD_CAT_ID><ELEMENT_SET_NO>999</ELEMENT_SET_NO><REV_AT_EPOCH>36408</REV_AT_EPOCH><BSTAR>.25841E-3</BSTAR><MEAN_MOTION_DOT>.832E-5</MEAN_MOTION_DOT><MEAN_MOTION_DDOT>0</MEAN_MOTION_DDOT></tleParameters></data></segment></body></omm>
<omm id="CCSDS_OMM_VERS" version="2.0">
<header><CREATION_DATE/><ORIGINATOR/></header><body><segment><metadata><OBJECT_NAME>IRIDIUM 71</OBJECT_NAME><OBJECT_ID>1998-026B</OBJECT_ID><CENTER_NAME>EARTH</CENTER_NAME><REF_FRAME>TEME</REF_FRAME><TIME_SYSTEM>UTC</TIME_SYSTEM><MEAN_ELEMENT_THEORY>SGP4</MEAN_ELEMENT_THEORY></metadata><data><meanElements><EPOCH>2024-05-03T15:16:42.607200</EPOCH><MEAN_MOTION>14.40258777</MEAN_MOTION><ECCENTRICITY>.0002865</ECCENTRICITY><INCLINATION>86.3954</INCLINATION><RA_OF_ASC_NODE>262.9634</RA_OF_ASC_NODE><ARG_OF_PERICENTER>45.7676</ARG_OF_PERICENTER><MEAN_ANOMALY>314.3758</MEAN_ANOMALY></meanElements><tleParameters><EPHEMERIS_TYPE>0</EPHEMERIS_TYPE><CLASSIFICATION_TYPE>U</CLASSIFICATION_TYPE><NORAD_CAT_ID>25320</NORAD_CAT_ID><ELEMENT_SET_NO>999</ELEMENT_SET_NO><REV_AT_EPOCH>36487</REV_AT_EPOCH><BSTAR>.21715E-3</BSTAR><MEAN_MOTION_DOT>.707E-5</MEAN_MOTION_DOT><MEAN_MOTION_DDOT>0</MEAN_MOTION_DDOT></tleParameters></data></segment></body></omm>
<omm id="CCSDS_OMM_VERS" version="2.0">
<header><CREATION_DATE/><ORIGINATOR/></header><body><segment><metadata><OBJECT_NAME>IRIDIUM 73</OBJECT_NAME><OBJECT_ID>1998-032C</OBJECT_ID><CENTER_NAME>EARTH</CENTER_NAME><REF_FRAME>TEME</REF_FRAME><TIME_SYSTEM>UTC</TIME_SYSTEM><MEAN_ELEMENT_THEORY>SGP4</MEAN_ELEMENT_THEORY></metadata><data><meanElements><EPOCH>2024-05-03T12:43:49.724832</EPOCH><MEAN_MOTION>14.50477549</MEAN_MOTION><ECCENTRICITY>.0001698</ECCENTRICITY><INCLINATION>86.4469</INCLINATION><RA_OF_ASC_NODE>220.5074</RA_OF_ASC_NODE><ARG_OF_PERICENTER>87.8686</ARG_OF_PERICENTER><MEAN_ANOMALY>272.2713</MEAN_ANOMALY></meanElements><tleParameters><EPHEMERIS_TYPE>0</EPHEMERIS_TYPE><CLASSIFICATION_TYPE>U</CLASSIFICATION_TYPE><NORAD_CAT_ID>25344</NORAD_CAT_ID><ELEMENT_SET_NO>999</ELEMENT_SET_NO><REV_AT_EPOCH>37115</REV_AT_EPOCH><BSTAR>.19419E-3</BSTAR><MEAN_MOTION_DOT>.779E-5</MEAN_MOTION_DOT><MEAN_MOTION_DDOT>0</MEAN_MOTION_DDOT></tleParameters></data></segment></body></omm>
<omm id="CCSDS_OMM_VERS" version="2.0">
<header><CREATION_DATE/><ORIGINATOR/></header><body><segment><metadata><OBJECT_NAME>IRIDIUM 82</OBJECT_NAME><OBJECT_ID>1998-051A</OBJECT_ID><CENTER_NAME>EARTH</CENTER_NAME><REF_FRAME>TEME</REF_FRAME><TIME_SYSTEM>UTC</TIME_SYSTEM><MEAN_ELEMENT_THEORY>SGP4</MEAN_ELEMENT_THEORY></metadata><data><meanElements><EPOCH>2024-05-03T12:44:17.340000</EPOCH><MEAN_MOTION>15.08916789</MEAN_MOTION><ECCENTRICITY>.0130823</ECCENTRICITY><INCLINATION>86.3703</INCLINATION><RA_OF_ASC_NODE>306.9505</RA_OF_ASC_NODE><ARG_OF_PERICENTER>25.7460</ARG_OF_PERICENTER><MEAN_ANOMALY>335.0210</MEAN_ANOMALY></meanElements><tleParameters><EPHEMERIS_TYPE>0</EPHEMERIS_TYPE><CLASSIFICATION_TYPE>U</CLASSIFICATION_TYPE><NORAD_CAT_ID>25467</NORAD_CAT_ID><ELEMENT_SET_NO>999</ELEMENT_SET_NO><REV_AT_EPOCH>36175</REV_AT_EPOCH><BSTAR>.5321E-3</BSTAR><MEAN_MOTION_DOT>.10306E-3</MEAN_MOTION_DOT><MEAN_MOTION_DDOT>0</MEAN_MOTION_DDOT></tleParameters></data></segment></body></omm>
<omm id="CCSDS_OMM_VERS" version="2.0">
<header><CREATION_DATE/><ORIGINATOR/></header><body><segment><metadata><OBJECT_NAME>IRIDIUM 2</OBJECT_NAME><OBJECT_ID>1998-066A</OBJECT_ID><CENTER_NAME>EARTH</CENTER_NAME><REF_FRAME>TEME</REF_FRAME><TIME_SYSTEM>UTC</TIME_SYSTEM><MEAN_ELEMENT_THEORY>SGP4</MEAN_ELEMENT_THEORY></metadata><data><meanElements><EPOCH>2024-05-03T13:05:40.773120</EPOCH><MEAN_MOTION>15.71866112</MEAN_MOTION><ECCENTRICITY>.0004074</ECCENTRICITY><INCLINATION>85.5058</INCLINATION><RA_OF_ASC_NODE>332.2761</RA_OF_ASC_NODE><ARG_OF_PERICENTER>126.2301</ARG_OF_PERICENTER><MEAN_ANOMALY>233.9346</MEAN_ANOMALY></meanElements><tleParameters><EPHEMERIS_TYPE>0</EPHEMERIS_TYPE><CLASSIFICATION_TYPE>U</CLASSIFICATION_TYPE><NORAD_CAT_ID>25527</NORAD_CAT_ID><ELEMENT_SET_NO>999</ELEMENT_SET_NO><REV_AT_EPOCH>40087</REV_AT_EPOCH><BSTAR>.78777E-3</BSTAR><MEAN_MOTION_DOT>.103183E-2</MEAN_MOTION_DOT><MEAN_MOTION_DDOT>0</MEAN_MOTION_DDOT></tleParameters></data></segment></body></omm>
</ndm>
